[{"OBJECT_NAME":"STARLINK-34132","OBJECT_ID":"2025-107Y","EPOCH":"2026-03-09T09:32:06.350208","MEAN_MOTION":15.2760526,"ECCENTRICITY":0.00032789,"INCLINATION":42.9988,"RA_OF_ASC_NODE":203.3747,"ARG_OF_PERICENTER":293.6744,"MEAN_ANOMALY":66.3764,"EPHEMERIS_TYPE":0,"CLASSIFICATION_TYPE":"U","NORAD_CAT_ID":64086,"ELEMENT_SET_NO":999,"REV_AT_EPOCH":4604,"BSTAR":0.0013698411,"MEAN_MOTION_DOT":0.00037658,"MEAN_MOTION_DDOT":0},{"OBJECT_NAME":"SIMSAT 2","OBJECT_ID":"2000-026B","EPOCH":"2026-03-09T20:25:01.673184","MEAN_MOTION":15.29036787,"ECCENTRICITY":0.00037035,"INCLINATION":86.3514,"RA_OF_ASC_NODE":176.4271,"ARG_OF_PERICENTER":287.9875,"MEAN_ANOMALY":72.0969,"EPHEMERIS_TYPE":0,"CLASSIFICATION_TYPE":"U","NORAD_CAT_ID":26366,"ELEMENT_SET_NO":999,"REV_AT_EPOCH":42803,"BSTAR":0.00013465771,"MEAN_MOTION_DOT":3.833e-5,"MEAN_MOTION_DDOT":0}]
